[{"OBJECT_NAME":"SL-8 R/B","OBJECT_ID":"1991-006B","EPOCH":"2026-03-19T06:50:03.498144","MEAN_MOTION":13.77495524,"ECCENTRICITY":0.00224888,"INCLINATION":82.9458,"RA_OF_ASC_NODE":162.9128,"ARG_OF_PERICENTER":12.1327,"MEAN_ANOMALY":47.8123,"EPHEMERIS_TYPE":0,"CLASSIFICATION_TYPE":"U","NORAD_CAT_ID":21088,"ELEMENT_SET_NO":999,"REV_AT_EPOCH":76539,"BSTAR":6.9013346e-5,"MEAN_MOTION_DOT":8.4e-7,"MEAN_MOTION_DDOT":0},{"OBJECT_NAME":"OKEAN-3","OBJECT_ID":"1991-039A","EPOCH":"2026-03-19T04:30:12.502080","MEAN_MOTION":15.04867981,"ECCENTRICITY":0.00129572,"INCLINATION":82.5193,"RA_OF_ASC_NODE":327.6434,"ARG_OF_PERICENTER":301.6359,"MEAN_ANOMALY":58.3603,"EPHEMERIS_TYPE":0,"CLASSIFICATION_TYPE":"U","NORAD_CAT_ID":21397,"ELEMENT_SET_NO":999,"REV_AT_EPOCH":86646,"BSTAR":0.00012659123,"MEAN_MOTION_DOT":1.82e-5,"MEAN_MOTION_DDOT":0},{"OBJECT_NAME":"COSMOS 2151","OBJECT_ID":"1991-042A","EPOCH":"2026-03-19T05:19:27.758784","MEAN_MOTION":15.00143562,"ECCENTRICITY":0.00133607,"INCLINATION":82.4932,"RA_OF_ASC_NODE":74.478,"ARG_OF_PERICENTER":34.3923,"MEAN_ANOMALY":325.8163,"EPHEMERIS_TYPE":0,"CLASSIFICATION_TYPE":"U","NORAD_CAT_ID":21422,"ELEMENT_SET_NO":999,"REV_AT_EPOCH":86462,"BSTAR":0.00013867687,"MEAN_MOTION_DOT":1.76e-5,"MEAN_MOTION_DDOT":0},{"OBJECT_NAME":"SL-14 R/B","OBJECT_ID":"1991-042B","EPOCH":"2026-03-18T20:58:07.510656","MEAN_MOTION":14.81839039,"ECCENTRICITY":0.0016365,"INCLINATION":82.494,"RA_OF_ASC_NODE":211.5709,"ARG_OF_PERICENTER":206.5563,"MEAN_ANOMALY":153.4815,"EPHEMERIS_TYPE":0,"CLASSIFICATION_TYPE":"U","NORAD_CAT_ID":21423,"ELEMENT_SET_NO":999,"REV_AT_EPOCH":85443,"BSTAR":5.2226359e-5,"MEAN_MOTION_DOT":4.37e-6,"MEAN_MOTION_DDOT":0},{"OBJECT_NAME":"ERS-1","OBJECT_ID":"1991-050A","EPOCH":"2026-03-19T06:57:21.461472","MEAN_MOTION":14.39456317,"ECCENTRICITY":0.00321608,"INCLINATION":98.7875,"RA_OF_ASC_NODE":96.7655,"ARG_OF_PERICENTER":171.8813,"MEAN_ANOMALY":188.2901,"EPHEMERIS_TYPE":0,"CLASSIFICATION_TYPE":"U","NORAD_CAT_ID":21574,"ELEMENT_SET_NO":999,"REV_AT_EPOCH":81711,"BSTAR":9.4122725e-5,"MEAN_MOTION_DOT":2.49e-6,"MEAN_MOTION_DDOT":0},{"OBJECT_NAME":"ARIANE 40 R/B","OBJECT_ID":"1991-050F","EPOCH":"2026-03-19T04:18:07.428960","MEAN_MOTION":14.42900305,"ECCENTRICITY":0.00040525,"INCLINATION":98.1992,"RA_OF_ASC_NODE":130.0588,"ARG_OF_PERICENTER":60.5131,"MEAN_ANOMALY":299.6464,"EPHEMERIS_TYPE":0,"CLASSIFICATION_TYPE":"U","NORAD_CAT_ID":21610,"ELEMENT_SET_NO":999,"REV_AT_EPOCH":82036,"BSTAR":8.9271673e-5,"MEAN_MOTION_DOT":2.57e-6,"MEAN_MOTION_DDOT":0},{"OBJECT_NAME":"INTERCOSMOS 25","OBJECT_ID":"1991-086A","EPOCH":"2026-03-19T01:38:35.267136","MEAN_MOTION":12.12032942,"ECCENTRICITY":0.14868181,"INCLINATION":82.6035,"RA_OF_ASC_NODE":304.3398,"ARG_OF_PERICENTER":96.7265,"MEAN_ANOMALY":280.4649,"EPHEMERIS_TYPE":0,"CLASSIFICATION_TYPE":"U","NORAD_CAT_ID":21819,"ELEMENT_SET_NO":999,"REV_AT_EPOCH":49782,"BSTAR":0.00030927259,"MEAN_MOTION_DOT":1.615e-5,"MEAN_MOTION_DDOT":0},{"OBJECT_NAME":"SL-8 R/B","OBJECT_ID":"1992-008B","EPOCH":"2026-03-19T06:29:04.713216","MEAN_MOTION":13.75969672,"ECCENTRICITY":0.00358625,"INCLINATION":82.9223,"RA_OF_ASC_NODE":260.6493,"ARG_OF_PERICENTER":107.4005,"MEAN_ANOMALY":64.9002,"EPHEMERIS_TYPE":0,"CLASSIFICATION_TYPE":"U","NORAD_CAT_ID":21876,"ELEMENT_SET_NO":999,"REV_AT_EPOCH":71073,"BSTAR":-9.016116e-6,"MEAN_MOTION_DOT":7.0e-8,"MEAN_MOTION_DDOT":0},{"OBJECT_NAME":"SL-8 R/B","OBJECT_ID":"1992-020B","EPOCH":"2026-03-19T07:05:05.328384","MEAN_MOTION":13.75550155,"ECCENTRICITY":0.00275399,"INCLINATION":82.9321,"RA_OF_ASC_NODE":146.6305,"ARG_OF_PERICENTER":270.7017,"MEAN_ANOMALY":157.3605,"EPHEMERIS_TYPE":0,"CLASSIFICATION_TYPE":"U","NORAD_CAT_ID":21938,"ELEMENT_SET_NO":999,"REV_AT_EPOCH":70245,"BSTAR":3.7055361e-5,"MEAN_MOTION_DOT":5.1e-7,"MEAN_MOTION_DDOT":0},{"OBJECT_NAME":"USA 81","OBJECT_ID":"1992-023A","EPOCH":"2026-03-19T05:30:11.756736","MEAN_MOTION":14.32370993,"ECCENTRICITY":0.00021886,"INCLINATION":85.0066,"RA_OF_ASC_NODE":125.937,"ARG_OF_PERICENTER":70.8196,"MEAN_ANOMALY":289.3234,"EPHEMERIS_TYPE":0,"CLASSIFICATION_TYPE":"U","NORAD_CAT_ID":21949,"ELEMENT_SET_NO":999,"REV_AT_EPOCH":9615,"BSTAR":5.4021715e-5,"MEAN_MOTION_DOT":1.66e-6,"MEAN_MOTION_DDOT":0},{"OBJECT_NAME":"COSMOS 2219","OBJECT_ID":"1992-076A","EPOCH":"2026-03-19T05:05:25.880640","MEAN_MOTION":14.14093314,"ECCENTRICITY":0.0018422,"INCLINATION":71.064,"RA_OF_ASC_NODE":358.1638,"ARG_OF_PERICENTER":193.7191,"MEAN_ANOMALY":166.3433,"EPHEMERIS_TYPE":0,"CLASSIFICATION_TYPE":"U","NORAD_CAT_ID":22219,"ELEMENT_SET_NO":999,"REV_AT_EPOCH":71972,"BSTAR":-4.1974236e-5,"MEAN_MOTION_DOT":-1.27e-6,"MEAN_MOTION_DDOT":0},{"OBJECT_NAME":"SL-16 R/B","OBJECT_ID":"1992-076B","EPOCH":"2026-03-19T07:08:01.828896","MEAN_MOTION":14.16860639,"ECCENTRICITY":0.00106127,"INCLINATION":71.0006,"RA_OF_ASC_NODE":168.1373,"ARG_OF_PERICENTER":78.6094,"MEAN_ANOMALY":337.9564,"EPHEMERIS_TYPE":0,"CLASSIFICATION_TYPE":"U","NORAD_CAT_ID":22220,"ELEMENT_SET_NO":999,"REV_AT_EPOCH":72319,"BSTAR":0.00015364807,"MEAN_MOTION_DOT":2.6e-6,"MEAN_MOTION_DDOT":0},{"OBJECT_NAME":"COSMOS 2221","OBJECT_ID":"1992-080A","EPOCH":"2026-03-19T06:25:24.623904","MEAN_MOTION":14.96238202,"ECCENTRICITY":0.00148625,"INCLINATION":82.5001,"RA_OF_ASC_NODE":269.9038,"ARG_OF_PERICENTER":155.4729,"MEAN_ANOMALY":204.7203,"EPHEMERIS_TYPE":0,"CLASSIFICATION_TYPE":"U","NORAD_CAT_ID":22236,"ELEMENT_SET_NO":999,"REV_AT_EPOCH":78222,"BSTAR":0.00015741971,"MEAN_MOTION_DOT":1.805e-5,"MEAN_MOTION_DDOT":0},{"OBJECT_NAME":"SL-16 R/B","OBJECT_ID":"1992-093B","EPOCH":"2026-03-19T03:19:38.225568","MEAN_MOTION":14.15448164,"ECCENTRICITY":0.00062823,"INCLINATION":71.0239,"RA_OF_ASC_NODE":344.432,"ARG_OF_PERICENTER":284.1504,"MEAN_ANOMALY":75.8921,"EPHEMERIS_TYPE":0,"CLASSIFICATION_TYPE":"U","NORAD_CAT_ID":22285,"ELEMENT_SET_NO":999,"REV_AT_EPOCH":71449,"BSTAR":0.00013212067,"MEAN_MOTION_DOT":2.1e-6,"MEAN_MOTION_DDOT":0},{"OBJECT_NAME":"COSMOS 2228","OBJECT_ID":"1992-094A","EPOCH":"2026-03-19T06:39:46.836288","MEAN_MOTION":14.97238202,"ECCENTRICITY":0.00166063,"INCLINATION":82.5169,"RA_OF_ASC_NODE":228.1294,"ARG_OF_PERICENTER":269.7415,"MEAN_ANOMALY":90.1904,"EPHEMERIS_TYPE":0,"CLASSIFICATION_TYPE":"U","NORAD_CAT_ID":22286,"ELEMENT_SET_NO":999,"REV_AT_EPOCH":77749,"BSTAR":0.00018679395,"MEAN_MOTION_DOT":2.193e-5,"MEAN_MOTION_DDOT":0},{"OBJECT_NAME":"SL-16 R/B","OBJECT_ID":"1993-016B","EPOCH":"2026-03-19T07:42:42.695136","MEAN_MOTION":14.15307722,"ECCENTRICITY":0.00122948,"INCLINATION":71.0082,"RA_OF_ASC_NODE":194.9529,"ARG_OF_PERICENTER":301.6068,"MEAN_ANOMALY":58.3854,"EPHEMERIS_TYPE":0,"CLASSIFICATION_TYPE":"U","NORAD_CAT_ID":22566,"ELEMENT_SET_NO":999,"REV_AT_EPOCH":70353,"BSTAR":-0.00010828314,"MEAN_MOTION_DOT":-2.59e-6,"MEAN_MOTION_DDOT":0},{"OBJECT_NAME":"COSMOS 2242","OBJECT_ID":"1993-024A","EPOCH":"2026-03-19T04:43:47.056224","MEAN_MOTION":14.96587666,"ECCENTRICITY":0.00149199,"INCLINATION":82.5152,"RA_OF_ASC_NODE":257.6199,"ARG_OF_PERICENTER":274.0175,"MEAN_ANOMALY":85.9341,"EPHEMERIS_TYPE":0,"CLASSIFICATION_TYPE":"U","NORAD_CAT_ID":22626,"ELEMENT_SET_NO":999,"REV_AT_EPOCH":78181,"BSTAR":0.00015989214,"MEAN_MOTION_DOT":1.849e-5,"MEAN_MOTION_DDOT":0}]
