SL-8 R/B                
1 21088U 91006B   26078.28476271  .00000084  00000+0  69013-4 0  9999
2 21088  82.9458 162.9128 0022488  12.1327  47.8123 13.77495524765398
OKEAN-3                 
1 21397U 91039A   26078.18764470  .00001820  00000+0  12659-3 0  9990
2 21397  82.5193 327.6434 0012957 301.6359  58.3603 15.04867981866466
COSMOS 2151             
1 21422U 91042A   26078.22184906  .00001760  00000+0  13868-3 0  9994
2 21422  82.4932  74.4780 0013360  34.3923 325.8163 15.00143562864629
SL-14 R/B               
1 21423U 91042B   26077.87369804  .00000437  00000+0  52226-4 0  9999
2 21423  82.4940 211.5709 0016365 206.5563 153.4815 14.81839039854431
ERS-1                   
1 21574U 91050A   26078.28983173  .00000249  00000+0  94123-4 0  9995
2 21574  98.7875  96.7655 0032160 171.8813 188.2901 14.39456317817114
ARIANE 40 R/B           
1 21610U 91050F   26078.17925265  .00000257  00000+0  89272-4 0  9990
2 21610  98.1992 130.0588 0004052  60.5131 299.6464 14.42900305820369
INTERCOSMOS 25          
1 21819U 91086A   26078.06846374  .00001615  00000+0  30927-3 0  9992
2 21819  82.6035 304.3398 1486818  96.7265 280.4649 12.12032942497827
SL-8 R/B                
1 21876U 92008B   26078.27019344  .00000007  00000+0 -90161-5 0  9995
2 21876  82.9223 260.6493 0035862 107.4005  64.9002 13.75969672710737
SL-8 R/B                
1 21938U 92020B   26078.29520056  .00000051  00000+0  37055-4 0  9997
2 21938  82.9321 146.6305 0027539 270.7017 157.3605 13.75550155702457
USA 81                  
1 21949U 92023A   26078.22930274  .00000166  00000+0  54022-4 0  9992
2 21949  85.0066 125.9370 0002188  70.8196 289.3234 14.32370993 96152
COSMOS 2219             
1 22219U 92076A   26078.21210510 -.00000127  00000+0 -41974-4 0  9995
2 22219  71.0640 358.1638 0018422 193.7191 166.3433 14.14093314719720
SL-16 R/B               
1 22220U 92076B   26078.29724339  .00000260  00000+0  15365-3 0  9994
2 22220  71.0006 168.1373 0010612  78.6094 337.9564 14.16860639723190
COSMOS 2221             
1 22236U 92080A   26078.26764611  .00001805  00000+0  15742-3 0  9995
2 22236  82.5001 269.9038 0014862 155.4729 204.7203 14.96238202782220
SL-16 R/B               
1 22285U 92093B   26078.13863687  .00000210  00000+0  13212-3 0  9991
2 22285  71.0239 344.4320 0006282 284.1504  75.8921 14.15448164714490
COSMOS 2228             
1 22286U 92094A   26078.27762542  .00002193  00000+0  18679-3 0  9990
2 22286  82.5169 228.1294 0016606 269.7415  90.1904 14.97238202777499
SL-16 R/B               
1 22566U 93016B   26078.32132749 -.00000259  00000+0 -10828-3 0  9993
2 22566  71.0082 194.9529 0012294 301.6068  58.3854 14.15307722703535
COSMOS 2242             
1 22626U 93024A   26078.19707241  .00001849  00000+0  15989-3 0  9996
2 22626  82.5152 257.6199 0014919 274.0175  85.9341 14.96587666781815
